{
  "type": "FeatureCollection",
  "features": [
    {
      "type": "Feature",
      "properties": {
        "norad_id": 40894,
        "name": "GAOFEN-9 01",
        "group": "resource",
        "lat": 19.896481467899108,
        "lon": -155.4985794225082,
        "alt_km": 629.4633862058208,
        "timestamp": "2025-12-08T13:49:31.450576+00:00",
        "meta_object_name": "GAOFEN-9 01",
        "meta_object_id": "2015-047A",
        "meta_epoch": "2025-12-08T06:37:45.709536",
        "meta_mean_motion": 14.8240602,
        "meta_eccentricity": 0.00287069,
        "meta_inclination": 97.6547,
        "meta_ra_of_asc_node": 21.4245,
        "meta_arg_of_pericenter": 48.401,
        "meta_mean_anomaly": 311.9657,
        "meta_ephemeris_type": 0,
        "meta_classification_type": "U",
        "meta_norad_cat_id": 40894,
        "meta_element_set_no": 999,
        "meta_rev_at_epoch": 55190,
        "meta_bstar": 0.00028345597,
        "meta_mean_motion_dot": 2.236e-05,
        "meta_mean_motion_ddot": 0,
        "tle_line1": "1 40894U 15047A   25342.27622349  .00002236  00000+0  28346-3 0  9991",
        "tle_line2": "2 40894  97.6547  21.4245 0028706  48.4010 311.9657 14.82406020551902"
      },
      "geometry": {
        "type": "Point",
        "coordinates": [
          -155.4985794225082,
          19.896481467899108
        ]
      }
    },
    {
      "type": "Feature",
      "properties": {
        "norad_id": 41026,
        "name": "YAOGAN-28",
        "group": "resource",
        "lat": 43.46624903669976,
        "lon": 113.52584238658865,
        "alt_km": 490.2921098273473,
        "timestamp": "2025-12-08T13:49:31.450586+00:00",
        "meta_object_name": "YAOGAN-28",
        "meta_object_id": "2015-064A",
        "meta_epoch": "2025-12-08T07:19:51.312000",
        "meta_mean_motion": 15.24238423,
        "meta_eccentricity": 0.00122274,
        "meta_inclination": 97.2809,
        "meta_ra_of_asc_node": 120.2235,
        "meta_arg_of_pericenter": 140.4538,
        "meta_mean_anomaly": 219.7594,
        "meta_ephemeris_type": 0,
        "meta_classification_type": "U",
        "meta_norad_cat_id": 41026,
        "meta_element_set_no": 999,
        "meta_rev_at_epoch": 56157,
        "meta_bstar": 0.00043430962,
        "meta_mean_motion_dot": 0.00010552,
        "meta_mean_motion_ddot": 0,
        "tle_line1": "1 41026U 15064A   25342.30545500  .00010552  00000+0  43431-3 0  9997",
        "tle_line2": "2 41026  97.2809 120.2235 0012227 140.4538 219.7594 15.24238423561579"
      },
      "geometry": {
        "type": "Point",
        "coordinates": [
          113.52584238658865,
          43.46624903669976
        ]
      }
    },
    {
      "type": "Feature",
      "properties": {
        "norad_id": 41038,
        "name": "YAOGAN-29",
        "group": "resource",
        "lat": 39.692819209301355,
        "lon": -0.9879960767520042,
        "alt_km": 617.0542561921775,
        "timestamp": "2025-12-08T13:49:31.450596+00:00",
        "meta_object_name": "YAOGAN-29",
        "meta_object_id": "2015-069A",
        "meta_epoch": "2025-12-08T07:10:01.343424",
        "meta_mean_motion": 14.82875486,
        "meta_eccentricity": 3.842e-05,
        "meta_inclination": 98.0223,
        "meta_ra_of_asc_node": 5.456,
        "meta_arg_of_pericenter": 350.0303,
        "meta_mean_anomaly": 10.0903,
        "meta_ephemeris_type": 0,
        "meta_classification_type": "U",
        "meta_norad_cat_id": 41038,
        "meta_element_set_no": 999,
        "meta_rev_at_epoch": 54233,
        "meta_bstar": 0.00012133689,
        "meta_mean_motion_dot": 9.29e-06,
        "meta_mean_motion_ddot": 0,
        "tle_line1": "1 41038U 15069A   25342.29862666  .00000929  00000+0  12134-3 0  9991",
        "tle_line2": "2 41038  98.0223   5.4560 0000384 350.0303  10.0903 14.82875486542334"
      },
      "geometry": {
        "type": "Point",
        "coordinates": [
          -0.9879960767520042,
          39.692819209301355
        ]
      }
    },
    {
      "type": "Feature",
      "properties": {
        "norad_id": 41167,
        "name": "KENT RIDGE 1",
        "group": "resource",
        "lat": -2.5527771215775643,
        "lon": -127.55536540322423,
        "alt_km": 497.7556327798211,
        "timestamp": "2025-12-08T13:49:31.450607+00:00",
        "meta_object_name": "KENT RIDGE 1",
        "meta_object_id": "2015-077B",
        "meta_epoch": "2025-12-08T01:16:57.458784",
        "meta_mean_motion": 15.21579216,
        "meta_eccentricity": 0.00085579,
        "meta_inclination": 14.9791,
        "meta_ra_of_asc_node": 245.9161,
        "meta_arg_of_pericenter": 64.302,
        "meta_mean_anomaly": 295.8185,
        "meta_ephemeris_type": 0,
        "meta_classification_type": "U",
        "meta_norad_cat_id": 41167,
        "meta_element_set_no": 999,
        "meta_rev_at_epoch": 55192,
        "meta_bstar": 0.0002320405,
        "meta_mean_motion_dot": 6.154e-05,
        "meta_mean_motion_ddot": 0,
        "tle_line1": "1 41167U 15077B   25342.05344281  .00006154  00000+0  23204-3 0  9991",
        "tle_line2": "2 41167  14.9791 245.9161 0008557  64.3020 295.8185 15.21579216551929"
      },
      "geometry": {
        "type": "Point",
        "coordinates": [
          -127.55536540322423,
          -2.5527771215775643
        ]
      }
    },
    {
      "type": "Feature",
      "properties": {
        "norad_id": 41194,
        "name": "GAOFEN-4",
        "group": "resource",
        "lat": -0.10437788239325252,
        "lon": 30.64890181958396,
        "alt_km": 35799.8797212143,
        "timestamp": "2025-12-08T13:49:31.450621+00:00",
        "meta_object_name": "GAOFEN-4",
        "meta_object_id": "2015-083A",
        "meta_epoch": "2025-12-08T04:02:38.777568",
        "meta_mean_motion": 1.00271511,
        "meta_eccentricity": 0.00035566,
        "meta_inclination": 0.1585,
        "meta_ra_of_asc_node": 81.0249,
        "meta_arg_of_pericenter": 105.4911,
        "meta_mean_anomaly": 57.0332,
        "meta_ephemeris_type": 0,
        "meta_classification_type": "U",
        "meta_norad_cat_id": 41194,
        "meta_element_set_no": 999,
        "meta_rev_at_epoch": 3661,
        "meta_bstar": 0,
        "meta_mean_motion_dot": -3.32e-06,
        "meta_mean_motion_ddot": 0,
        "tle_line1": "1 41194U 15083A   25342.16850437 -.00000332  00000+0  00000+0 0  9993",
        "tle_line2": "2 41194   0.1585  81.0249 0003556 105.4911  57.0332  1.00271511 36618"
      },
      "geometry": {
        "type": "Point",
        "coordinates": [
          30.64890181958396,
          -0.10437788239325252
        ]
      }
    },
    {
      "type": "Feature",
      "properties": {
        "norad_id": 41240,
        "name": "JASON-3",
        "group": "resource",
        "lat": 65.87127736682838,
        "lon": -96.50314686309208,
        "alt_km": 1309.145093331751,
        "timestamp": "2025-12-08T13:49:31.450632+00:00",
        "meta_object_name": "JASON-3",
        "meta_object_id": "2016-002A",
        "meta_epoch": "2025-12-08T05:53:18.829248",
        "meta_mean_motion": 12.87626345,
        "meta_eccentricity": 0.00071307,
        "meta_inclination": 66.039,
        "meta_ra_of_asc_node": 167.2734,
        "meta_arg_of_pericenter": 270.5464,
        "meta_mean_anomaly": 89.4738,
        "meta_ephemeris_type": 0,
        "meta_classification_type": "U",
        "meta_norad_cat_id": 41240,
        "meta_element_set_no": 999,
        "meta_rev_at_epoch": 46266,
        "meta_bstar": 7.5642999e-05,
        "meta_mean_motion_dot": -4.3e-07,
        "meta_mean_motion_ddot": 0,
        "tle_line1": "1 41240U 16002A   25342.24535682 -.00000043  00000+0  75643-4 0  9997",
        "tle_line2": "2 41240  66.0390 167.2734 0007130 270.5464  89.4738 12.87626345462663"
      },
      "geometry": {
        "type": "Point",
        "coordinates": [
          -96.50314686309208,
          65.87127736682838
        ]
      }
    },
    {
      "type": "Feature",
      "properties": {
        "norad_id": 41335,
        "name": "SENTINEL-3A",
        "group": "resource",
        "lat": -39.139884094555356,
        "lon": -139.44657260688425,
        "alt_km": 809.4863358532593,
        "timestamp": "2025-12-08T13:49:31.450642+00:00",
        "meta_object_name": "SENTINEL-3A",
        "meta_object_id": "2016-011A",
        "meta_epoch": "2025-12-08T07:45:00.453024",
        "meta_mean_motion": 14.26744221,
        "meta_eccentricity": 9.617e-05,
        "meta_inclination": 98.6212,
        "meta_ra_of_asc_node": 47.3964,
        "meta_arg_of_pericenter": 92.5963,
        "meta_mean_anomaly": 267.5328,
        "meta_ephemeris_type": 0,
        "meta_classification_type": "U",
        "meta_norad_cat_id": 41335,
        "meta_element_set_no": 999,
        "meta_rev_at_epoch": 51084,
        "meta_bstar": 0.00014698692,
        "meta_mean_motion_dot": 3.12e-06,
        "meta_mean_motion_ddot": 0,
        "tle_line1": "1 41335U 16011A   25342.32292191  .00000312  00000+0  14699-3 0  9997",
        "tle_line2": "2 41335  98.6212  47.3964 0000961  92.5963 267.5328 14.26744221510843"
      },
      "geometry": {
        "type": "Point",
        "coordinates": [
          -139.44657260688425,
          -39.139884094555356
        ]
      }
    }
  ]
}